[{"OBJECT_NAME":"STARLINK-34476","OBJECT_ID":"2025-126W","EPOCH":"2026-03-09T07:02:54.976704","MEAN_MOTION":14.98335488,"ECCENTRICITY":0.00029515,"INCLINATION":70.0025,"RA_OF_ASC_NODE":35.4114,"ARG_OF_PERICENTER":270.6697,"MEAN_ANOMALY":89.4123,"EPHEMERIS_TYPE":0,"CLASSIFICATION_TYPE":"U","NORAD_CAT_ID":64364,"ELEMENT_SET_NO":999,"REV_AT_EPOCH":4062,"BSTAR":0.00054138655,"MEAN_MOTION_DOT":6.374e-5,"MEAN_MOTION_DDOT":0},{"OBJECT_NAME":"COSMOS 2251 DEB","OBJECT_ID":"1993-036BTC","EPOCH":"2026-03-06T21:15:32.065056","MEAN_MOTION":14.78300657,"ECCENTRICITY":0.00931311,"INCLINATION":74.0491,"RA_OF_ASC_NODE":271.5054,"ARG_OF_PERICENTER":315.1951,"MEAN_ANOMALY":44.1729,"EPHEMERIS_TYPE":0,"CLASSIFICATION_TYPE":"U","NORAD_CAT_ID":38212,"ELEMENT_SET_NO":999,"REV_AT_EPOCH":82553,"BSTAR":0.00033586703,"MEAN_MOTION_DOT":2.587e-5,"MEAN_MOTION_DDOT":0}]
